{"fetched_at":"2026-07-17T17:38:19.080Z","source":"https://celestrak.org/NORAD/elements/gp.php?NAME=HULIANWANG&FORMAT=JSON","constellation":"guowang","records":[{"OBJECT_NAME":"HULIANWANG DIGUI-12","OBJECT_ID":"2025-030B","EPOCH":"2026-07-17T05:46:05.097792","CLASSIFICATION_TYPE":"U","MEAN_MOTION":13.2932236,"ECCENTRICITY":0.00009316,"INCLINATION":50.0016,"RA_OF_ASC_NODE":128.1634,"ARG_OF_PERICENTER":278.8649,"MEAN_ANOMALY":81.2118,"EPHEMERIS_TYPE":0,"NORAD_CAT_ID":62972,"ELEMENT_SET_NO":999,"REV_AT_EPOCH":6985,"BSTAR":0.000067449031,"MEAN_MOTION_DOT":-9.3e-7,"MEAN_MOTION_DDOT":0},{"OBJECT_NAME":"HULIANWANG DIGUI-13","OBJECT_ID":"2025-030C","EPOCH":"2026-07-17T05:21:53.533728","CLASSIFICATION_TYPE":"U","MEAN_MOTION":13.29324514,"ECCENTRICITY":0.00007425,"INCLINATION":50.0019,"RA_OF_ASC_NODE":128.0914,"ARG_OF_PERICENTER":279.6369,"MEAN_ANOMALY":80.4419,"EPHEMERIS_TYPE":0,"NORAD_CAT_ID":62973,"ELEMENT_SET_NO":999,"REV_AT_EPOCH":6985,"BSTAR":0.000049290011,"MEAN_MOTION_DOT":-0.00000101,"MEAN_MOTION_DDOT":0},{"OBJECT_NAME":"HULIANWANG DIGUI-14","OBJECT_ID":"2025-030D","EPOCH":"2026-07-17T06:34:08.929344","CLASSIFICATION_TYPE":"U","MEAN_MOTION":13.29327536,"ECCENTRICITY":0.00007459,"INCLINATION":50.0025,"RA_OF_ASC_NODE":127.7146,"ARG_OF_PERICENTER":283.8524,"MEAN_ANOMALY":76.2265,"EPHEMERIS_TYPE":0,"NORAD_CAT_ID":62974,"ELEMENT_SET_NO":999,"REV_AT_EPOCH":6986,"BSTAR":0.000055319787,"MEAN_MOTION_DOT":-9.8e-7,"MEAN_MOTION_DDOT":0},{"OBJECT_NAME":"HULIANWANG DIGUI-15","OBJECT_ID":"2025-030E","EPOCH":"2026-07-17T05:09:54.016128","CLASSIFICATION_TYPE":"U","MEAN_MOTION":13.29324508,"ECCENTRICITY":0.0000833,"INCLINATION":50.002,"RA_OF_ASC_NODE":128.0511,"ARG_OF_PERICENTER":282.4621,"MEAN_ANOMALY":77.6158,"EPHEMERIS_TYPE":0,"NORAD_CAT_ID":62975,"ELEMENT_SET_NO":999,"REV_AT_EPOCH":6985,"BSTAR":0.000046483258,"MEAN_MOTION_DOT":-0.00000102,"MEAN_MOTION_DDOT":0},{"OBJECT_NAME":"HULIANWANG DIGUI-16","OBJECT_ID":"2025-030F","EPOCH":"2026-07-17T06:22:14.153376","CLASSIFICATION_TYPE":"U","MEAN_MOTION":13.29325614,"ECCENTRICITY":0.00007118,"INCLINATION":50.0042,"RA_OF_ASC_NODE":127.7416,"ARG_OF_PERICENTER":282.1947,"MEAN_ANOMALY":77.8845,"EPHEMERIS_TYPE":0,"NORAD_CAT_ID":62976,"ELEMENT_SET_NO":999,"REV_AT_EPOCH":6986,"BSTAR":0.000060200753,"MEAN_MOTION_DOT":-9.6e-7,"MEAN_MOTION_DDOT":0},{"OBJECT_NAME":"HULIANWANG DIGUI-17","OBJECT_ID":"2025-030G","EPOCH":"2026-07-17T06:10:03.841824","CLASSIFICATION_TYPE":"U","MEAN_MOTION":13.29325711,"ECCENTRICITY":0.00008307,"INCLINATION":50.0055,"RA_OF_ASC_NODE":127.7494,"ARG_OF_PERICENTER":274.1483,"MEAN_ANOMALY":85.9295,"EPHEMERIS_TYPE":0,"NORAD_CAT_ID":62977,"ELEMENT_SET_NO":999,"REV_AT_EPOCH":6986,"BSTAR":0.000065712798,"MEAN_MOTION_DOT":-9.4e-7,"MEAN_MOTION_DDOT":0},{"OBJECT_NAME":"HULIANWANG DIGUI-18","OBJECT_ID":"2025-030H","EPOCH":"2026-07-17T05:58:00.341184","CLASSIFICATION_TYPE":"U","MEAN_MOTION":13.29327638,"ECCENTRICITY":0.00008639,"INCLINATION":50.0059,"RA_OF_ASC_NODE":127.7205,"ARG_OF_PERICENTER":273.4883,"MEAN_ANOMALY":86.5891,"EPHEMERIS_TYPE":0,"NORAD_CAT_ID":62978,"ELEMENT_SET_NO":999,"REV_AT_EPOCH":6986,"BSTAR":0.000050381699,"MEAN_MOTION_DOT":-0.00000101,"MEAN_MOTION_DDOT":0},{"OBJECT_NAME":"HULIANWANG DIGUI-19","OBJECT_ID":"2025-030J","EPOCH":"2026-07-17T06:46:19.332480","CLASSIFICATION_TYPE":"U","MEAN_MOTION":13.29319098,"ECCENTRICITY":0.00007481,"INCLINATION":50.0044,"RA_OF_ASC_NODE":127.8362,"ARG_OF_PERICENTER":272.2806,"MEAN_ANOMALY":87.7981,"EPHEMERIS_TYPE":0,"NORAD_CAT_ID":62979,"ELEMENT_SET_NO":999,"REV_AT_EPOCH":6986,"BSTAR":0.000045038042,"MEAN_MOTION_DOT":-0.00000103,"MEAN_MOTION_DDOT":0},{"OBJECT_NAME":"HULIANWANG DIGUI-20","OBJECT_ID":"2025-086A","EPOCH":"2026-07-17T05:51:27.725760","CLASSIFICATION_TYPE":"U","MEAN_MOTION":13.24411613,"ECCENTRICITY":0.00020696,"INCLINATION":86.5067,"RA_OF_ASC_NODE":303.0099,"ARG_OF_PERICENTER":111.9874,"MEAN_ANOMALY":248.148,"EPHEMERIS_TYPE":0,"NORAD_CAT_ID":63687,"ELEMENT_SET_NO":999,"REV_AT_EPOCH":5885,"BSTAR":0.00011767229,"MEAN_MOTION_DOT":6.5e-7,"MEAN_MOTION_DDOT":0},{"OBJECT_NAME":"HULIANWANG DIGUI-21","OBJECT_ID":"2025-086B","EPOCH":"2026-07-17T06:02:23.104320","CLASSIFICATION_TYPE":"U","MEAN_MOTION":13.24410277,"ECCENTRICITY":0.00020091,"INCLINATION":86.5095,"RA_OF_ASC_NODE":303.0733,"ARG_OF_PERICENTER":115.1213,"MEAN_ANOMALY":245.0129,"EPHEMERIS_TYPE":0,"NORAD_CAT_ID":63688,"ELEMENT_SET_NO":999,"REV_AT_EPOCH":5884,"BSTAR":0.00010700966,"MEAN_MOTION_DOT":6.1e-7,"MEAN_MOTION_DDOT":0},{"OBJECT_NAME":"HULIANWANG DIGUI-22","OBJECT_ID":"2025-086C","EPOCH":"2026-07-17T06:13:12.880704","CLASSIFICATION_TYPE":"U","MEAN_MOTION":13.24410606,"ECCENTRICITY":0.00021142,"INCLINATION":86.506,"RA_OF_ASC_NODE":302.9286,"ARG_OF_PERICENTER":111.4316,"MEAN_ANOMALY":248.7044,"EPHEMERIS_TYPE":0,"NORAD_CAT_ID":63689,"ELEMENT_SET_NO":999,"REV_AT_EPOCH":5884,"BSTAR":0.00005903604,"MEAN_MOTION_DOT":4e-7,"MEAN_MOTION_DDOT":0},{"OBJECT_NAME":"HULIANWANG DIGUI-23","OBJECT_ID":"2025-086D","EPOCH":"2026-07-17T06:34:56.280000","CLASSIFICATION_TYPE":"U","MEAN_MOTION":13.2441037,"ECCENTRICITY":0.000209,"INCLINATION":86.5102,"RA_OF_ASC_NODE":303.114,"ARG_OF_PERICENTER":111.9243,"MEAN_ANOMALY":248.2114,"EPHEMERIS_TYPE":0,"NORAD_CAT_ID":63690,"ELEMENT_SET_NO":999,"REV_AT_EPOCH":5884,"BSTAR":0.000016689089,"MEAN_MOTION_DOT":2.2e-7,"MEAN_MOTION_DDOT":0},{"OBJECT_NAME":"HULIANWANG DIGUI-24","OBJECT_ID":"2025-086E","EPOCH":"2026-07-17T06:45:52.049088","CLASSIFICATION_TYPE":"U","MEAN_MOTION":13.24411046,"ECCENTRICITY":0.00020534,"INCLINATION":86.5109,"RA_OF_ASC_NODE":303.1469,"ARG_OF_PERICENTER":114.3348,"MEAN_ANOMALY":245.8,"EPHEMERIS_TYPE":0,"NORAD_CAT_ID":63691,"ELEMENT_SET_NO":999,"REV_AT_EPOCH":5884,"BSTAR":0.000018426329,"MEAN_MOTION_DOT":2.3e-7,"MEAN_MOTION_DDOT":0},{"OBJECT_NAME":"HULIANWANG DIGUI-25","OBJECT_ID":"2025-086F","EPOCH":"2026-07-17T06:56:44.848608","CLASSIFICATION_TYPE":"U","MEAN_MOTION":13.24410394,"ECCENTRICITY":0.00019986,"INCLINATION":86.5047,"RA_OF_ASC_NODE":302.887,"ARG_OF_PERICENTER":111.9555,"MEAN_ANOMALY":248.1792,"EPHEMERIS_TYPE":0,"NORAD_CAT_ID":63692,"ELEMENT_SET_NO":999,"REV_AT_EPOCH":5884,"BSTAR":0.00004920472,"MEAN_MOTION_DOT":3.6e-7,"MEAN_MOTION_DDOT":0},{"OBJECT_NAME":"HULIANWANG DIGUI-26","OBJECT_ID":"2025-086G","EPOCH":"2026-07-17T06:24:03.907296","CLASSIFICATION_TYPE":"U","MEAN_MOTION":13.2440941,"ECCENTRICITY":0.00022199,"INCLINATION":86.5096,"RA_OF_ASC_NODE":303.084,"ARG_OF_PERICENTER":117.4463,"MEAN_ANOMALY":242.6897,"EPHEMERIS_TYPE":0,"NORAD_CAT_ID":63693,"ELEMENT_SET_NO":999,"REV_AT_EPOCH":5884,"BSTAR":0.000034753372,"MEAN_MOTION_DOT":3e-7,"MEAN_MOTION_DDOT":0},{"OBJECT_NAME":"HULIANWANG DIGUI-27","OBJECT_ID":"2025-086H","EPOCH":"2026-07-17T07:07:35.071680","CLASSIFICATION_TYPE":"U","MEAN_MOTION":13.24412209,"ECCENTRICITY":0.00020655,"INCLINATION":86.5057,"RA_OF_ASC_NODE":302.9312,"ARG_OF_PERICENTER":113.8046,"MEAN_ANOMALY":246.3305,"EPHEMERIS_TYPE":0,"NORAD_CAT_ID":63694,"ELEMENT_SET_NO":999,"REV_AT_EPOCH":5884,"BSTAR":0.000068826847,"MEAN_MOTION_DOT":4.4e-7,"MEAN_MOTION_DDOT":0}]}
