HULIANWANG DIGUI-12     
1 62972U 25030B   26198.24033678 -.00000093  00000+0  67449-4 0  9991
2 62972  50.0016 128.1634 0000931 278.8649  81.2118 13.29322360 69852
HULIANWANG DIGUI-13     
1 62973U 25030C   26198.22353627 -.00000101  00000+0  49290-4 0  9993
2 62973  50.0019 128.0914 0000742 279.6369  80.4419 13.29324514 69852
HULIANWANG DIGUI-14     
1 62974U 25030D   26198.27371446 -.00000098  00000+0  55320-4 0  9994
2 62974  50.0025 127.7146 0000745 283.8524  76.2265 13.29327536 69866
HULIANWANG DIGUI-15     
1 62975U 25030E   26198.21520852 -.00000102  00000+0  46483-4 0  9992
2 62975  50.0020 128.0511 0000833 282.4621  77.6158 13.29324508 69854
HULIANWANG DIGUI-16     
1 62976U 25030F   26198.26544159 -.00000096  00000+0  60201-4 0  9990
2 62976  50.0042 127.7416 0000711 282.1947  77.8845 13.29325614 69867
HULIANWANG DIGUI-17     
1 62977U 25030G   26198.25698891 -.00000094  00000+0  65713-4 0  9994
2 62977  50.0055 127.7494 0000830 274.1483  85.9295 13.29325711 69863
HULIANWANG DIGUI-18     
1 62978U 25030H   26198.24861506 -.00000101  00000+0  50382-4 0  9994
2 62978  50.0059 127.7205 0000863 273.4883  86.5891 13.29327638 69869
HULIANWANG DIGUI-19     
1 62979U 25030J   26198.28216820 -.00000103  00000+0  45038-4 0  9996
2 62979  50.0044 127.8362 0000748 272.2806  87.7981 13.29319098 69867
HULIANWANG DIGUI-20     
1 63687U 25086A   26198.24407090  .00000065  00000+0  11767-3 0  9998
2 63687  86.5067 303.0099 0002069 111.9874 248.1480 13.24411613 58855
HULIANWANG DIGUI-21     
1 63688U 25086B   26198.25165630  .00000061  00000+0  10701-3 0  9994
2 63688  86.5095 303.0733 0002009 115.1213 245.0129 13.24410277 58849
HULIANWANG DIGUI-22     
1 63689U 25086C   26198.25917686  .00000040  00000+0  59036-4 0  9993
2 63689  86.5060 302.9286 0002114 111.4316 248.7044 13.24410606 58845
HULIANWANG DIGUI-23     
1 63690U 25086D   26198.27426250  .00000022  00000+0  16689-4 0  9996
2 63690  86.5102 303.1140 0002090 111.9243 248.2114 13.24410370 58844
HULIANWANG DIGUI-24     
1 63691U 25086E   26198.28185242  .00000023  00000+0  18426-4 0  9993
2 63691  86.5109 303.1469 0002053 114.3348 245.8000 13.24411046 58846
HULIANWANG DIGUI-25     
1 63692U 25086F   26198.28940797  .00000036  00000+0  49205-4 0  9991
2 63692  86.5047 302.8870 0001998 111.9555 248.1792 13.24410394 58849
HULIANWANG DIGUI-26     
1 63693U 25086G   26198.26671189  .00000030  00000+0  34753-4 0  9992
2 63693  86.5096 303.0840 0002219 117.4463 242.6897 13.24409410 58842
HULIANWANG DIGUI-27     
1 63694U 25086H   26198.29693370  .00000044  00000+0  68827-4 0  9996
2 63694  86.5057 302.9312 0002065 113.8046 246.3305 13.24412209 58843
